$$SOE
2460728.500000000, A.D. 2025-Feb-22 00:00:00.0000, -4.680778741847693E+08, 4.781821951671172E+08, 8.775112894297838E+06,
2460735.500000000, A.D. 2025-Mar-01 00:00:00.0000, -4.747689537126149E+08, 4.738434896209510E+08, 9.348822662089407E+06,
2460742.500000000, A.D. 2025-Mar-08 00:00:00.0000, -4.813835877284924E+08, 4.694285500282225E+08, 9.921026636572599E+06,
2460749.500000000, A.D. 2025-Mar-15 00:00:00.0000, -4.879212659073812E+08, 4.649386320248327E+08, 1.049164390832222E+07,
2460756.500000000, A.D. 2025-Mar-22 00:00:00.0000, -4.943814953316333E+08, 4.603749843345971E+08, 1.106059515034777E+07,
2460763.500000000, A.D. 2025-Mar-29 00:00:00.0000, -5.007638009009693E+08, 4.557388469697272E+08, 1.162780252496776E+07,
2460770.500000000, A.D. 2025-Apr-05 00:00:00.0000, -5.070677240601334E+08, 4.510314503214827E+08, 1.219318950873950E+07,
2460777.500000000, A.D. 2025-Apr-12 00:00:00.0000, -5.132928217703390E+08, 4.462540152451275E+08, 1.275668082027224E+07,
2460784.500000000, A.D. 2025-Apr-19 00:00:00.0000, -5.194386659114647E+08, 4.414077532581550E+08, 1.331820239576289E+07,
2460791.500000000, A.D. 2025-Apr-26 00:00:00.0000, -5.255048428428649E+08, 4.364938666488269E+08, 1.387768137048739E+07,
2460798.500000000, A.D. 2025-May-03 00:00:00.0000, -5.314909530086678E+08, 4.315135485141568E+08, 1.443504605716956E+07,
2460805.500000000, A.D. 2025-May-10 00:00:00.0000, -5.373966105586004E+08, 4.264679827359158E+08, 1.499022591913715E+07,
2460812.500000000, A.D. 2025-May-17 00:00:00.0000, -5.432214429472780E+08, 4.213583438535230E+08, 1.554315153140983E+07,
2460819.500000000, A.D. 2025-May-24 00:00:00.0000, -5.489650903377321E+08, 4.161857967792339E+08, 1.609375450922632E+07,
2460826.500000000, A.D. 2025-May-31 00:00:00.0000, -5.546272043911029E+08, 4.109514966664365E+08, 1.664196739105290E+07,
2460833.500000000, A.D. 2025-Jun-07 00:00:00.0000, -5.602074468432797E+08, 4.056565901356690E+08, 1.718772361128110E+07,
2460840.500000000, A.D. 2025-Jun-14 00:00:00.0000, -5.657054902330931E+08, 4.003022171915642E+08, 1.773095772498181E+07,
2460847.500000000, A.D. 2025-Jun-21 00:00:00.0000, -5.711210195650078E+08, 3.948895105595858E+08, 1.827160550578594E+07,
2460854.500000000, A.D. 2025-Jun-28 00:00:00.0000, -5.764537317774156E+08, 3.894195942069558E+08, 1.880960377424043E+07,
2460861.500000000, A.D. 2025-Jul-05 00:00:00.0000, -5.817033345330809E+08, 3.838935832038168E+08, 1.934489027202785E+07,
2460868.500000000, A.D. 2025-Jul-12 00:00:00.0000, -5.868695455228506E+08, 3.783125841193207E+08, 1.987740362551382E+07,
2460875.500000000, A.D. 2025-Jul-19 00:00:00.0000, -5.919520920929216E+08, 3.726776953776958E+08, 2.040708333429396E+07,
2460882.500000000, A.D. 2025-Jul-26 00:00:00.0000, -5.969507109854602E+08, 3.669900075177215E+08, 2.093386976095013E+07,
2460889.500000000, A.D. 2025-Aug-02 00:00:00.0000, -6.018651481269518E+08, 3.612506033772237E+08, 2.145770411789247E+07,
2460896.500000000, A.D. 2025-Aug-09 00:00:00.0000, -6.066951584406534E+08, 3.554605581879927E+08, 2.197852844808376E+07,
2460903.500000000, A.D. 2025-Aug-16 00:00:00.0000, -6.114405056060184E+08, 3.496209395179941E+08, 2.249628558759207E+07,
2460910.500000000, A.D. 2025-Aug-23 00:00:00.0000, -6.161009614722776E+08, 3.437328070774611E+08, 2.301091908468461E+07,
2460917.500000000, A.D. 2025-Aug-30 00:00:00.0000, -6.206763047970580E+08, 3.377972131029435E+08, 2.352237310387203E+07,
2460924.500000000, A.D. 2025-Sep-06 00:00:00.0000, -6.251663207281805E+08, 3.318152043195953E+08, 2.403059252696095E+07,
2460931.500000000, A.D. 2025-Sep-13 00:00:00.0000, -6.295708026995566E+08, 3.257878229990905E+08, 2.453552320168991E+07,
2460938.500000000, A.D. 2025-Sep-20 00:00:00.0000, -6.338895534676462E+08, 3.197161054690782E+08, 2.503711190359503E+07,
2460945.500000000, A.D. 2025-Sep-27 00:00:00.0000, -6.381223842293662E+08, 3.136010811856580E+08, 2.553530616852795E+07,
2460952.500000000, A.D. 2025-Oct-04 00:00:00.0000, -6.422691138380293E+08, 3.074437729080120E+08, 2.603005422502118E+07,
2460959.500000000, A.D. 2025-Oct-11 00:00:00.0000, -6.463295684909229E+08, 3.012451970324334E+08, 2.652130498380090E+07,
2460966.500000000, A.D. 2025-Oct-18 00:00:00.0000, -6.503035816045247E+08, 2.950063638116087E+08, 2.700900803603330E+07,
2460973.500000000, A.D. 2025-Oct-25 00:00:00.0000, -6.541909937374206E+08, 2.887282774703201E+08, 2.749311364836547E+07,
2460980.500000000, A.D. 2025-Nov-01 00:00:00.0000, -6.579916525211990E+08, 2.824119362331744E+08, 2.797357275230128E+07,
2460987.500000000, A.D. 2025-Nov-08 00:00:00.0000, -6.617054125646801E+08, 2.760583322331130E+08, 2.845033692201440E+07,
2460994.500000000, A.D. 2025-Nov-15 00:00:00.0000, -6.653321351836847E+08, 2.696684512424247E+08, 2.892335832205252E+07,
2461001.500000000, A.D. 2025-Nov-22 00:00:00.0000, -6.688716875537621E+08, 2.632432724467422E+08, 2.939258960577001E+07,
2461008.500000000, A.D. 2025-Nov-29 00:00:00.0000, -6.723239414391983E+08, 2.567837693974167E+08, 2.985798387107609E+07,
2461015.500000000, A.D. 2025-Dec-06 00:00:00.0000, -6.756887737759464E+08, 2.502909120066987E+08, 3.031949487106420E+07,
2461022.500000000, A.D. 2025-Dec-13 00:00:00.0000, -6.789660686750218E+08, 2.437656662160420E+08, 3.077707716414988E+07,
2461029.500000000, A.D. 2025-Dec-20 00:00:00.0000, -6.821557173527714E+08, 2.372089923612392E+08, 3.123068596682955E+07,
2461036.500000000, A.D. 2025-Dec-27 00:00:00.0000, -6.852576170613488E+08, 2.306218448258741E+08, 3.168027701924102E+07,
2461043.500000000, A.D. 2026-Jan-03 00:00:00.0000, -6.882716704785997E+08, 2.240051723678813E+08, 3.212580654702656E+07,
2461050.500000000, A.D. 2026-Jan-10 00:00:00.0000, -6.911977854476392E+08, 2.173599184410136E+08, 3.256723125397368E+07,
2461057.500000000, A.D. 2026-Jan-17 00:00:00.0000, -6.940358748334513E+08, 2.106870214205074E+08, 3.300450831668589E+07,
2461064.500000000, A.D. 2026-Jan-24 00:00:00.0000, -6.967858564184066E+08, 2.039874147564908E+08, 3.343759537607995E+07,
2461071.500000000, A.D. 2026-Jan-31 00:00:00.0000, -6.994476528130941E+08, 1.972620270486265E+08, 3.386645052305444E+07,
2461078.500000000, A.D. 2026-Feb-07 00:00:00.0000, -7.020211913208042E+08, 1.905117819855513E+08, 3.429103226810958E+07,
2461085.500000000, A.D. 2026-Feb-14 00:00:00.0000, -7.045064035024395E+08, 1.837375981346860E+08, 3.471129947055943E+07,
2461092.500000000, A.D. 2026-Feb-21 00:00:00.0000, -7.069032240540786E+08, 1.769403891601882E+08, 3.512721123904182E+07,
2461099.500000000, A.D. 2026-Feb-28 00:00:00.0000, -7.092115900818758E+08, 1.701210656230205E+08, 3.553872699716584E+07,
2461106.500000000, A.D. 2026-Mar-07 00:00:00.0000, -7.114314428329524E+08, 1.632805364134413E+08, 3.594580674381310E+07,
2461113.500000000, A.D. 2026-Mar-14 00:00:00.0000, -7.135627291065954E+08, 1.564197074835171E+08, 3.634841106295606E+07,
2461120.500000000, A.D. 2026-Mar-21 00:00:00.0000, -7.156054005624465E+08, 1.495394807777305E+08, 3.674650095640112E+07,
2461127.500000000, A.D. 2026-Mar-28 00:00:00.0000, -7.175594129347978E+08, 1.426407543900869E+08, 3.714003776792751E+07,
2461134.500000000, A.D. 2026-Apr-04 00:00:00.0000, -7.194247257568691E+08, 1.357244229818938E+08, 3.752898317542245E+07,
2461141.500000000, A.D. 2026-Apr-11 00:00:00.0000, -7.212013023212911E+08, 1.287913781002579E+08, 3.791329919666106E+07,
2461148.500000000, A.D. 2026-Apr-18 00:00:00.0000, -7.228891097174631E+08, 1.218425083906362E+08, 3.829294819378254E+07,
2461155.500000000, A.D. 2026-Apr-25 00:00:00.0000, -7.244881188997420E+08, 1.148786997181698E+08, 3.866789287367227E+07,
2461162.500000000, A.D. 2026-May-02 00:00:00.0000, -7.259983047554561E+08, 1.079008351682105E+08, 3.903809627921136E+07,
2461169.500000000, A.D. 2026-May-09 00:00:00.0000, -7.274196460477686E+08, 1.009097948598828E+08, 3.940352175472467E+07,
2461176.500000000, A.D. 2026-May-16 00:00:00.0000, -7.287521248550357E+08, 9.390645571111877E+07, 3.976413286239649E+07,
2461183.500000000, A.D. 2026-May-23 00:00:00.0000, -7.299957254544089E+08, 8.689169217763190E+07, 4.011989332852016E+07,
2461190.500000000, A.D. 2026-May-30 00:00:00.0000, -7.311504347278751E+08, 7.986637828541800E+07, 4.047076723632336E+07,
2461197.500000000, A.D. 2026-Jun-06 00:00:00.0000, -7.322162444080399E+08, 7.283138768333891E+07, 4.081671922687365E+07,
2461204.500000000, A.D. 2026-Jun-13 00:00:00.0000, -7.331931514974515E+08, 6.578759191502558E+07, 4.115771438795999E+07,
2461211.500000000, A.D. 2026-Jun-20 00:00:00.0000, -7.340811573618689E+08, 5.873585983624075E+07, 4.149371811581661E+07,
2461218.500000000, A.D. 2026-Jun-27 00:00:00.0000, -7.348802671955302E+08, 5.167705783754417E+07, 4.182469607740728E+07,
2461225.500000000, A.D. 2026-Jul-04 00:00:00.0000, -7.355904898586373E+08, 4.461205009715633E+07, 4.215061420966557E+07,
2461232.500000000, A.D. 2026-Jul-11 00:00:00.0000, -7.362118378333502E+08, 3.754169873207414E+07, 4.247143872135023E+07,
2461239.500000000, A.D. 2026-Jul-18 00:00:00.0000, -7.367443272057720E+08, 3.046686387324546E+07, 4.278713609086235E+07,
2461246.500000000, A.D. 2026-Jul-25 00:00:00.0000, -7.371879776496457E+08, 2.338840366766201E+07, 4.309767305778512E+07,
2461253.500000000, A.D. 2026-Aug-01 00:00:00.0000, -7.375428123637595E+08, 1.630717415943037E+07, 4.340301659961657E+07,
2461260.500000000, A.D. 2026-Aug-08 00:00:00.0000, -7.378088577482089E+08, 9.224029014140157E+06, 4.370313387091303E+07,
2461267.500000000, A.D. 2026-Aug-15 00:00:00.0000, -7.379861424044331E+08, 2.139819537119869E+06, 4.399799210348199E+07,
2461274.500000000, A.D. 2026-Aug-22 00:00:00.0000, -7.380746962200098E+08, -4.944603792983413E+06, 4.428755863716707E+07,
2461281.500000000, A.D. 2026-Aug-29 00:00:00.0000, -7.380745518274323E+08, -1.202838964797771E+07, 4.457180117895271E+07,
2461288.500000000, A.D. 2026-Sep-05 00:00:00.0000, -7.379857463035907E+08, -1.911068689918013E+07, 4.485068786031560E+07,
2461295.500000000, A.D. 2026-Sep-12 00:00:00.0000, -7.378083206549984E+08, -2.619064589572592E+07, 4.512418707164972E+07,
$$EOE